NORAD_CAT_ID,OBJECT_NAME,OBJECT_TYPE,EPOCH,MEAN_MOTION,ECCENTRICITY,INCLINATION,RA_OF_ASC_NODE,ARG_OF_PERICENTER,MEAN_ANOMALY,BSTAR,MEAN_MOTION_DOT,MEAN_MOTION_DDOT,TLE_LINE0,TLE_LINE1,TLE_LINE2,SEMIMAJOR_AXIS,PERIOD,APOGEE,PERIGEE,DECAYED
52268.0,STARLINK-3746,PAYLOAD,2022-08-01 22:00:00,15.08827156,0.0001685,53.2144,255.8457,46.7834,79.9592,0.0013222,0.0002081,0.0,0 STARLINK-3746,1 52268U 22041H   22213.91667824  .00020810  00000-0  13222-2 0  9998,2 52268  53.2144 255.8457 0001685  46.7834  79.9592 15.08827156  1300,6917.92,95.438,540.95,538.619,0.0
52268.0,STARLINK-3746,PAYLOAD,2022-08-02 06:00:02,15.08859736,0.0001768,53.2145,254.3498,48.2411,90.1484,-0.0019355999999999,-0.00030978,0.0,0 STARLINK-3746,1 52268U 22041H   22214.25002315 -.00030978  00000-0 -19356-2 0  9996,2 52268  53.2145 254.3498 0001768  48.2411  90.1484 15.08859736 17008,6917.82,95.436,540.908,538.462,0.0
52268.0,STARLINK-3746,PAYLOAD,2022-08-02 14:00:01,15.08822408,0.0001908,53.2141,252.8545,42.5705,107.362,0.002436,0.00038676,0.0,0 STARLINK-3746,1 52268U 22041H   22214.58334491  .00038676  00000-0  24360-2 0  9997,2 52268  53.2141 252.8545 0001908  42.5705 107.3620 15.08822408  1304,6917.934,95.439,541.119,538.479,0.0
52268.0,STARLINK-3746,PAYLOAD,2022-08-03 06:00:00,15.08860125,0.0001841999999999,53.2143,249.8605,48.2571,124.8615,-0.0019129,-0.0003061999999999,0.0,0 STARLINK-3746,1 52268U 22041H   22215.25001157 -.00030620  00000-0 -19129-2 0  9992,2 52268  53.2143 249.8605 0001842  48.2571 124.8615 15.08860125 17156,6917.819,95.436,540.9580000000002,538.41,0.0
52268.0,STARLINK-3746,PAYLOAD,2022-08-03 14:00:01,15.088297699999998,0.0001981,53.2141,248.3649,42.9441,141.7835,0.0021057,0.00033374,0.0,0 STARLINK-3746,1 52268U 22041H   22215.58334491  .00033374  00000-0  21057-2 0  9998,2 52268  53.2141 248.3649 0001981  42.9441 141.7835 15.08829770  1300,6917.9119999999975,95.438,541.1469999999998,538.406,0.0
52268.0,STARLINK-3746,PAYLOAD,2022-08-03 22:00:01,15.08829304,0.0001821999999999,53.2142,246.8665,47.4334,148.9635,0.0020548,0.00032556,0.0,0 STARLINK-3746,1 52268U 22041H   22215.91668981  .00032556  00000-0  20548-2 0  9994,2 52268  53.2142 246.8665 0001822  47.4334 148.9635 15.08829304 17258,6917.913000000001,95.438,541.039,538.518,0.0
52268.0,STARLINK-3746,PAYLOAD,2022-08-04 14:00:01,15.08850883,0.0002028,53.2144,243.8753,42.3081,177.2295,-0.0012099,-0.00019498,0.0,0 STARLINK-3746,1 52268U 22041H   22216.58334491 -.00019498  00000-0 -12099-2 0  9998,2 52268  53.2144 243.8753 0002028  42.3081 177.2295 15.08850883  1309,6917.847,95.437,541.115,538.309,0.0
52268.0,STARLINK-3746,PAYLOAD,2022-08-04 22:00:00,15.08805311,0.0001836,53.2147,242.377,45.2546,185.8936,0.0023661999999999,0.00037535,0.0,0 STARLINK-3746,1 52268U 22041H   22216.91667824  .00037535  00000-0  23662-2 0  9992,2 52268  53.2147 242.3770 0001836  45.2546 185.8936 15.08805311  1302,6917.986,95.44,541.122,538.581,0.0
52268.0,STARLINK-3746,PAYLOAD,2022-08-05 14:00:01,15.08825663,0.0002079,53.2148,239.3859,41.4907,212.8736,0.00088688,0.00013849,0.0,0 STARLINK-3746,1 52268U 22041H   22217.58335648  .00013849  00000-0  88688-3 0  9994,2 52268  53.2148 239.3859 0002079  41.4907 212.8736 15.08825663  1307,6917.924,95.438,541.227,538.351,0.0
52268.0,STARLINK-3746,PAYLOAD,2022-08-05 22:00:00,15.08811084,0.0001926,53.2151,237.8878,46.3847,219.5106,0.0026557,0.00042198,0.0,0 STARLINK-3746,1 52268U 22041H   22217.91667824  .00042198  00000-0  26557-2 0  9990,2 52268  53.2151 237.8878 0001926  46.3847 219.5106 15.08811084  1309,6917.969,95.439,541.1659999999998,538.501,0.0
52268.0,STARLINK-3746,PAYLOAD,2022-08-06 14:00:01,15.0883809,0.0002139,53.215,234.8967,42.2683,246.7949,0.00012207,1.655e-05,0.0,0 STARLINK-3746,1 52268U 22041H   22218.58334491  .00001655  00000-0  12207-3 0  9996,2 52268  53.2150 234.8967 0002139  42.2683 246.7949 15.08838090 17652,6917.886,95.438,541.231,538.271,0.0
52268.0,STARLINK-3746,PAYLOAD,2022-08-06 22:00:00,15.08816268,0.0001976,53.2152,233.3987,47.8349,252.8324,0.0028384,0.00045146,0.0,0 STARLINK-3746,1 52268U 22041H   22218.91667824  .00045146  00000-0  28384-2 0  9997,2 52268  53.2152 233.3987 0001976  47.8349 252.8324 15.08816268  1301,6917.953,95.439,541.185,538.451,0.0
52268.0,STARLINK-3746,PAYLOAD,2022-08-07 14:00:01,15.08848682,0.0002161,53.2148,230.4074,43.2798,280.5693,-0.00053323,-8.767e-05,0.0,0 STARLINK-3746,1 52268U 22041H   22219.58334491 -.00008767  00000-0 -53323-3 0  9994,2 52268  53.2148 230.4074 0002161  43.2798 280.5693 15.08848682  1308,6917.854,95.437,541.214,538.224,0.0
52268.0,STARLINK-3746,PAYLOAD,2022-08-07 22:00:00,15.08831099,0.0001953,53.2149,228.9095,48.7297,286.7307,0.0013742,0.00021645,0.0,0 STARLINK-3746,1 52268U 22041H   22219.91667824  .00021645  00000-0  13742-2 0  9998,2 52268  53.2149 228.9095 0001953  48.7297 286.7307 15.08831099 17857,6917.908,95.438,541.124,538.422,0.0
52268.0,STARLINK-3746,PAYLOAD,2022-08-08 14:00:01,15.08834945,0.0002085999999999,53.2142,225.9181,42.6785,316.0224,-0.00082027,-0.00013318,0.0,0 STARLINK-3746,1 52268U 22041H   22220.58335648 -.00013318  00000-0 -82027-3 0  9992,2 52268  53.2142 225.9181 0002086  42.6785 316.0224 15.08834945 17955,6917.896,95.438,541.2040000000002,538.318,0.0
52268.0,STARLINK-3746,PAYLOAD,2022-08-08 22:00:00,15.08806855,0.0001915,53.2142,224.4204,49.316,320.9141,0.0030834,0.00049082,0.0,0 STARLINK-3746,1 52268U 22041H   22220.91667824  .00049082  00000-0  30834-2 0  9996,2 52268  53.2142 224.4204 0001915  49.3160 320.9141 15.08806855  1309,6917.982,95.44,541.1709999999998,538.5219999999998,0.0
52268.0,STARLINK-3746,PAYLOAD,2022-08-09 14:00:01,15.08845221,0.0002112999999999,53.2136,221.4289,44.82100000000001,348.5683,-0.0012317,-0.00019841,0.0,0 STARLINK-3746,1 52268U 22041H   22221.58334491 -.00019841  00000-0 -12317-2 0  9999,2 52268  53.2136 221.4289 0002113  44.8210 348.5683 15.08845221 18113,6917.864000000001,95.437,541.191,538.268,0.0
52268.0,STARLINK-3746,PAYLOAD,2022-08-09 22:00:00,15.08816885,0.000197,53.2135,219.9311,51.3491,353.6408,0.0027646,0.00043958,0.0,0 STARLINK-3746,1 52268U 22041H   22221.91667824  .00043958  00000-0  27646-2 0  9990,2 52268  53.2135 219.9311 0001970  51.3491 353.6408 15.08816885  1303,6917.951,95.439,541.179,538.453,0.0
52268.0,STARLINK-3746,PAYLOAD,2022-08-10 06:00:00,15.08848517,0.0002154999999999,53.2134,218.4363,48.441,8.1369,-0.0012502,-0.00020135,0.0,0 STARLINK-3746,1 52268U 22041H   22222.25001157 -.00020135  00000-0 -12502-2 0  9998,2 52268  53.2134 218.4363 0002155  48.4410   8.1369 15.08848517 18210,6917.854,95.437,541.21,538.229,0.0
52268.0,STARLINK-3746,PAYLOAD,2022-08-10 14:00:01,15.08855829,0.0002163,53.2142,216.9394,46.5765,21.5933,-0.001439,-0.00023128,0.0,0 STARLINK-3746,1 52268U 22041H   22222.58334491 -.00023128  00000-0 -14390-2 0  9996,2 52268  53.2142 216.9394 0002163  46.5765  21.5933 15.08855829  1309,6917.831999999999,95.437,541.193,538.201,0.0
52268.0,STARLINK-3746,PAYLOAD,2022-08-10 22:00:00,15.08833243,0.0002035,53.2151,215.4415,52.1317,27.6455,0.0016269,0.00025694,0.0,0 STARLINK-3746,1 52268U 22041H   22222.91667824  .00025694  00000-0  16269-2 0  9997,2 52268  53.2151 215.4415 0002035  52.1317  27.6455 15.08833243  1303,6917.901,95.438,541.174,538.3580000000002,0.0
52268.0,STARLINK-3746,PAYLOAD,2022-08-11 14:00:01,15.08840334,0.0002150999999999,53.2152,212.4499,45.9426,57.0166,-0.0015647999999999,-0.00025107,0.0,0 STARLINK-3746,1 52268U 22041H   22223.58334491 -.00025107  00000-0 -15648-2 0  9993,2 52268  53.2152 212.4499 0002151  45.9426  57.0166 15.08840334  1308,6917.879,95.438,541.232,538.256,0.0
52268.0,STARLINK-3746,PAYLOAD,2022-08-11 22:00:00,15.08815074,0.0002065,53.2155,210.9521,51.853,62.6912,0.0020653,0.00032712,0.0,0 STARLINK-3746,1 52268U 22041H   22223.91667824  .00032712  00000-0  20653-2 0  9999,2 52268  53.2155 210.9521 0002065  51.8530  62.6912 15.08815074 18465,6917.956999999999,95.439,541.25,538.393,0.0
52268.0,STARLINK-3746,PAYLOAD,2022-08-12 14:00:01,15.08855628,0.0002236,53.2159,207.9606,47.5407,90.1733,-0.0016093,-0.00025821,0.0,0 STARLINK-3746,1 52268U 22041H   22224.58334491 -.00025821  00000-0 -16093-2 0  9992,2 52268  53.2159 207.9606 0002236  47.5407  90.1733 15.08855628  1305,6917.833000000001,95.437,541.244,538.151,0.0
52268.0,STARLINK-3746,PAYLOAD,2022-08-12 22:00:01,15.08835917,0.000216,53.2164,206.4629,53.147,96.2327,0.0019268,0.00030507,0.0,0 STARLINK-3746,1 52268U 22041H   22224.91668981  .00030507  00000-0  19268-2 0  9995,2 52268  53.2164 206.4629 0002160  53.1470  96.2327 15.08835917  1304,6917.893,95.438,541.252,538.264,0.0
52268.0,STARLINK-3746,PAYLOAD,2022-08-13 04:00:00,15.08866319,0.0002278,53.2165,205.3421,49.625,18.389,-0.0024594,-0.00039246,0.0,0 STARLINK-3746,1 52268U 22041H   22225.16667824 -.00039246  00000-0 -24594-2 0  9997,2 52268  53.2165 205.3421 0002278  49.6250  18.3890 15.08866319 18655,6917.8,95.436,541.241,538.089,0.0
52268.0,STARLINK-3746,PAYLOAD,2022-08-13 14:00:01,15.0884684,0.0002218999999999,53.2167,203.4713,47.346,125.1717,-0.0024476,-0.0003904,0.0,0 STARLINK-3746,1 52268U 22041H   22225.58334491 -.00039040  00000-0 -24476-2 0  9995,2 52268  53.2167 203.4713 0002219  47.3460 125.1717 15.08846840  1309,6917.859,95.437,541.26,538.189,0.0
52268.0,STARLINK-3746,PAYLOAD,2022-08-13 22:00:00,15.088232,0.0002147,53.2173,201.9739,52.8047,131.2988,0.0015080999999999,0.00023784,0.0,0 STARLINK-3746,1 52268U 22041H   22225.91667824  .00023784  00000-0  15081-2 0  9999,2 52268  53.2173 201.9739 0002147  52.8047 131.2988 15.08823200  1302,6917.932,95.439,541.2819999999998,538.311,0.0
52268.0,STARLINK-3746,PAYLOAD,2022-08-14 14:00:01,15.08858336,0.0002249,53.2174,198.9822,49.3479,157.9319,-0.0019728,-0.00031565,0.0,0 STARLINK-3746,1 52268U 22041H   22226.58334491 -.00031565  00000-0 -19728-2 0  9994,2 52268  53.2174 198.9822 0002249  49.3479 157.9319 15.08858336  1305,6917.824000000001,95.436,541.245,538.134,0.0
